NORAD_CAT_ID,OBJECT_NAME,OBJECT_TYPE,EPOCH,MEAN_MOTION,ECCENTRICITY,INCLINATION,RA_OF_ASC_NODE,ARG_OF_PERICENTER,MEAN_ANOMALY,BSTAR,MEAN_MOTION_DOT,MEAN_MOTION_DDOT,TLE_LINE0,TLE_LINE1,TLE_LINE2,SEMIMAJOR_AXIS,PERIOD,APOGEE,PERIGEE,DECAYED
52108.0,STARLINK-3698,PAYLOAD,2022-08-28 14:00:01,15.08846558,0.000186,53.2151,106.1388,72.0343,187.1418,0.00084488,0.00013186,0.0,0 STARLINK-3698,1 52108U 22029W   22240.58334491  .00013186  00000-0  84488-3 0  9992,2 52108  53.2151 106.1388 0001860  72.0343 187.1418 15.08846558  1300,6917.86,95.437,541.012,538.439,0.0
52108.0,STARLINK-3698,PAYLOAD,2022-08-28 22:00:00,15.08836925,0.0001931,53.2149,104.6441,65.5241,205.2646,-0.0011140999999999,-0.00017974,0.0,0 STARLINK-3698,1 52108U 22029W   22240.91667824 -.00017974  00000-0 -11141-2 0  9994,2 52108  53.2149 104.6441 0001931  65.5241 205.2646 15.08836925  1305,6917.89,95.438,541.091,538.419,0.0
52108.0,STARLINK-3698,PAYLOAD,2022-08-29 06:00:02,15.08846831,0.0001855,53.2145,103.147,65.6106,216.817,-0.0021423,-0.00034228,0.0,0 STARLINK-3698,1 52108U 22029W   22241.25002315 -.00034228  00000-0 -21423-2 0  9995,2 52108  53.2145 103.1470 0001855  65.6106 216.8170 15.08846831 26262,6917.86,95.437,541.008,538.441,0.0
52108.0,STARLINK-3698,PAYLOAD,2022-08-29 14:00:01,15.08823962,0.0001828,53.2146,101.6493,72.8112,221.1453,0.0020104,0.00031839,0.0,0 STARLINK-3698,1 52108U 22029W   22241.58334491  .00031839  00000-0  20104-2 0  9992,2 52108  53.2146 101.6493 0001828  72.8112 221.1453 15.08823962  1309,6917.929,95.439,541.059,538.53,0.0
52108.0,STARLINK-3698,PAYLOAD,2022-08-29 22:00:00,15.08836027,0.0001955999999999,53.2144,100.1547,66.4976,239.0506,7.6567e-05,9.3e-06,0.0,0 STARLINK-3698,1 52108U 22029W   22241.91667824  .00000930  00000-0  76567-4 0  9992,2 52108  53.2144 100.1547 0001956  66.4976 239.0506 15.08836027 26366,6917.893,95.438,541.111,538.404,0.0
52108.0,STARLINK-3698,PAYLOAD,2022-08-30 14:00:01,15.088309400000002,0.0001802,53.2144,97.1597,72.7612,255.9813,0.00019764,2.858e-05,0.0,0 STARLINK-3698,1 52108U 22029W   22242.58334491  .00002858  00000-0  19764-3 0  9993,2 52108  53.2144  97.1597 0001802  72.7612 255.9813 15.08830940  1306,6917.908,95.438,541.02,538.526,0.0
52108.0,STARLINK-3698,PAYLOAD,2022-08-30 22:00:00,15.08818446,0.0001909999999999,53.2144,95.6651,65.5793,274.7465,0.00026901,3.993e-05,0.0,0 STARLINK-3698,1 52108U 22029W   22242.91667824  .00003993  00000-0  26901-3 0  9991,2 52108  53.2144  95.6651 0001910  65.5793 274.7465 15.08818446  1309,6917.946,95.439,541.133,538.49,0.0
52108.0,STARLINK-3698,PAYLOAD,2022-08-31 14:00:01,15.0882948,0.0001835,53.2148,92.6702,72.1669,291.3196,0.0016279,0.00025708,0.0,0 STARLINK-3698,1 52108U 22029W   22243.58334491  .00025708  00000-0  16279-2 0  9990,2 52108  53.2148  92.6702 0001835  72.1669 291.3196 15.08829480  1305,6917.913000000001,95.438,541.047,538.508,0.0
52108.0,STARLINK-3698,PAYLOAD,2022-08-31 22:00:00,15.08832388,0.0001973,53.2149,91.1755,65.625,309.4567,0.00059225,9.148e-05,0.0,0 STARLINK-3698,1 52108U 22029W   22243.91667824  .00009148  00000-0  59225-3 0  9995,2 52108  53.2149  91.1755 0001973  65.6250 309.4567 15.08832388 26675,6917.904,95.438,541.134,538.404,0.0
52108.0,STARLINK-3698,PAYLOAD,2022-09-01 14:00:01,15.08836864,0.0001796,53.2155,88.1807,71.6295,326.7114,-0.0003981,-6.618e-05,0.0,0 STARLINK-3698,1 52108U 22029W   22244.58335648 -.00006618  00000-0 -39810-3 0  9994,2 52108  53.2155  88.1807 0001796  71.6295 326.7114 15.08836864  1301,6917.89,95.438,540.997,538.513,0.0
52108.0,STARLINK-3698,PAYLOAD,2022-09-01 22:00:00,15.08817852,0.0001899999999999,53.2156,86.6861,64.4139,345.4553,0.00096125,0.00015034,0.0,0 STARLINK-3698,1 52108U 22029W   22244.91667824  .00015034  00000-0  96125-3 0  9997,2 52108  53.2156  86.6861 0001900  64.4139 345.4553 15.08817852 26824,6917.948,95.439,541.127,538.499,0.0
52108.0,STARLINK-3698,PAYLOAD,2022-09-02 14:00:01,15.08831559,0.0001889,53.2171,83.6907,64.4763,8.5513,0.00058819,9.083e-05,0.0,0 STARLINK-3698,1 52108U 22029W   22245.58334491  .00009083  00000-0  58819-3 0  9997,2 52108  53.2171  83.6907 0001889  64.4763   8.5513 15.08831559  1307,6917.906,95.438,541.078,538.464,0.0
52108.0,STARLINK-3698,PAYLOAD,2022-09-02 22:00:01,15.08827884,0.0001899999999999,53.2163,82.1969,65.295,19.3971,0.0012499,0.00019654,0.0,0 STARLINK-3698,1 52108U 22029W   22245.91668981  .00019654  00000-0  12499-2 0  9996,2 52108  53.2163  82.1969 0001900  65.2950  19.3971 15.08827884  1305,6917.917,95.438,541.097,538.4680000000002,0.0
52108.0,STARLINK-3698,PAYLOAD,2022-09-03 00:00:00,15.08818164,0.0001875,53.2162,81.8229,63.6039,113.9276,0.0031282,0.0004982,0.0,0 STARLINK-3698,1 52108U 22029W   22246.00001157  .00049820  00000-0  31282-2 0  9992,2 52108  53.2162  81.8229 0001875  63.6039 113.9276 15.08818164 26981,6917.946999999999,95.439,541.109,538.515,0.0
52108.0,STARLINK-3698,PAYLOAD,2022-09-03 14:00:01,15.08856233,0.0001771999999999,53.2166,79.2026,73.1963,34.6256,0.00016877,2.4e-05,0.0,0 STARLINK-3698,1 52108U 22029W   22246.58334491  .00002400  00000-0  16877-3 0  9992,2 52108  53.2166  79.2026 0001772  73.1963  34.6256 15.08856233 27076,6917.831,95.437,540.922,538.47,0.0
52108.0,STARLINK-3698,PAYLOAD,2022-09-03 22:00:00,15.08849458,0.0001802,53.2165,77.7079,65.3205,54.1249,-0.00098355,-0.00015911,0.0,0 STARLINK-3698,1 52108U 22029W   22246.91667824 -.00015911  00000-0 -98355-3 0  9992,2 52108  53.2165  77.7079 0001802  65.3205  54.1249 15.08849458  1300,6917.851,95.437,540.9630000000002,538.47,0.0
52108.0,STARLINK-3698,PAYLOAD,2022-09-04 14:00:01,15.08851888,0.0001626,53.2166,74.7137,73.3418,69.3588,-0.00013074,-2.369e-05,0.0,0 STARLINK-3698,1 52108U 22029W   22247.58335648 -.00002369  00000-0 -13074-3 0  9990,2 52108  53.2166  74.7137 0001626  73.3418  69.3588 15.08851888  1306,6917.844,95.437,540.8340000000002,538.5840000000002,0.0
52108.0,STARLINK-3698,PAYLOAD,2022-09-04 20:00:01,15.08825525,0.0001624,53.2163,73.5929,65.3243,356.0143,0.00015766,2.221e-05,0.0,0 STARLINK-3698,1 52108U 22029W   22247.83334491  .00002221  00000-0  15766-3 0  9998,2 52108  53.2163  73.5929 0001624  65.3243 356.0143 15.08825525  1306,6917.925,95.438,540.913,538.6659999999998,0.0
52108.0,STARLINK-3698,PAYLOAD,2022-09-05 14:00:01,15.08869515,0.0001467,53.2161,70.2249,72.6392,104.7642,-0.0036075,-0.00057291,0.0,0 STARLINK-3698,1 52108U 22029W   22248.58334491 -.00057291  00000-0 -36075-2 0  9995,2 52108  53.2161  70.2249 0001467  72.6392 104.7642 15.08869515  1303,6917.79,95.436,540.67,538.64,0.0
52108.0,STARLINK-3698,PAYLOAD,2022-09-05 22:00:00,15.0879662,0.0001475,53.2159,68.7301,61.5206,127.494,0.0029750999999999,0.00047322,0.0,0 STARLINK-3698,1 52108U 22029W   22248.91667824  .00047322  00000-0  29751-2 0  9996,2 52108  53.2159  68.7301 0001475  61.5206 127.4940 15.08796620  1300,6918.013000000001,95.44,540.898,538.8580000000002,0.0
52108.0,STARLINK-3698,PAYLOAD,2022-09-06 12:00:00,15.08829148,0.0001413,53.2156,66.1094,72.6817,46.5794,0.0012985999999999,0.00020433,0.0,0 STARLINK-3698,1 52108U 22029W   22249.50001157  .00020433  00000-0  12986-2 0  9999,2 52108  53.2156  66.1094 0001413  72.6817  46.5794 15.08829148 27512,6917.9140000000025,95.438,540.756,538.8009999999998,0.0
52108.0,STARLINK-3698,PAYLOAD,2022-09-06 14:00:01,15.08845107,0.0001424,53.2156,65.7359,71.1155,141.0383,-0.0006226,-0.00010184,0.0,0 STARLINK-3698,1 52108U 22029W   22249.58334491 -.00010184  00000-0 -62260-3 0  9992,2 52108  53.2156  65.7359 0001424  71.1155 141.0383 15.08845107  1309,6917.865,95.437,540.715,538.745,0.0
52108.0,STARLINK-3698,PAYLOAD,2022-09-06 22:00:00,15.08824277,0.0001545,53.2155,64.2409,61.7263,162.0259,0.0013713,0.00021594,0.0,0 STARLINK-3698,1 52108U 22029W   22249.91667824  .00021594  00000-0  13713-2 0  9991,2 52108  53.2155  64.2409 0001545  61.7263 162.0259 15.08824277  1307,6917.928000000001,95.439,540.862,538.725,0.0
52108.0,STARLINK-3698,PAYLOAD,2022-09-07 06:00:00,15.08818887,0.000149,53.2154,62.7426,68.2901,167.0566,0.00013316,1.831e-05,0.0,0 STARLINK-3698,1 52108U 22029W   22250.25001157  .00001831  00000-0  13316-3 0  9993,2 52108  53.2154  62.7426 0001490  68.2901 167.0566 15.08818887 27627,6917.945,95.439,540.841,538.779,0.0
52108.0,STARLINK-3698,PAYLOAD,2022-09-07 14:00:01,15.08838363,0.0001576999999999,53.2154,61.2465,70.9762,175.9348,-0.00077476,-0.00012597,0.0,0 STARLINK-3698,1 52108U 22029W   22250.58334491 -.00012597  00000-0 -77476-3 0  9999,2 52108  53.2154  61.2465 0001577  70.9762 175.9348 15.08838363  1309,6917.885,95.438,540.841,538.659,0.0
52108.0,STARLINK-3698,PAYLOAD,2022-09-07 22:00:00,15.08806567,0.0001661,53.2155,59.7514,62.0542,196.4453,0.0033217,0.00052926,0.0,0 STARLINK-3698,1 52108U 22029W   22250.91667824  .00052926  00000-0  33217-2 0  9997,2 52108  53.2155  59.7514 0001661  62.0542 196.4453 15.08806567  1305,6917.983,95.44,540.997,538.6990000000002,0.0
52108.0,STARLINK-3698,PAYLOAD,2022-09-08 14:00:01,15.0886043,0.0001619,53.2158,56.7568,68.9324,212.7387,-0.00099794,-0.00016144,0.0,0 STARLINK-3698,1 52108U 22029W   22251.58334491 -.00016144  00000-0 -99794-3 0  9999,2 52108  53.2158  56.7568 0001619  68.9324 212.7387 15.08860430  1307,6917.818,95.436,540.803,538.563,0.0
52108.0,STARLINK-3698,PAYLOAD,2022-09-08 22:00:00,15.08845276,0.0001655,53.2158,55.2616,60.2797,233.0089,0.00091443,0.00014297,0.0,0 STARLINK-3698,1 52108U 22029W   22251.91667824  .00014297  00000-0  91443-3 0  9993,2 52108  53.2158  55.2616 0001655  60.2797 233.0089 15.08845276  1300,6917.864000000001,95.437,540.874,538.5840000000002,0.0
52108.0,STARLINK-3698,PAYLOAD,2022-09-09 00:00:02,15.08867353,0.0001618,53.2157,54.887,59.3214,326.9263,-0.0021995,-0.00035149,0.0,0 STARLINK-3698,1 52108U 22029W   22252.00002315 -.00035149  00000-0 -21995-2 0  9997,2 52108  53.2157  54.8870 0001618  59.3214 326.9263 15.08867353 27896,6917.797,95.436,540.781,538.5419999999998,0.0
